KUZGTU 1 (RS47S)        
1 57217U 23091AV  26156.78306263  .00015139  00000+0  52897-3 0  9994
2 57217  97.5063 221.1490 0012243 133.1815 227.0450 15.29590857162636
SONATE-2                
1 59112U 24043Q   26156.38685947  .00037545  00000+0  50424-3 0  9992
2 59112  97.5534 306.0669 0006708 233.9854 126.0780 15.57809925126057
MESAT1                  
1 60209U 24125G   26156.32290925  .00049723  00000+0  57057-3 0  9994
2 60209  97.2304  13.5451 0008373 250.7624 109.2729 15.61887563107716
OOV-CUBE (TUBSAT-30)    
1 60240U 24128F   26156.81020700  .00003173  00000+0  24672-3 0  9994
2 60240  61.9953 265.2423 0046050 131.2256 229.2818 15.02722881104403
COLIBRI-S (RS67S)       
1 61746U 24199M   26156.81043235  .00031336  00000+0  61525-3 0  9992
2 61746  97.3005  30.5638 0006940 331.8300  28.2574 15.47240898135658
HORS 3 (RS81S)          
1 61753U 24199U   26156.82502139  .00046841  00000+0  71823-3 0  9993
2 61753  97.2989  32.4452 0004733 341.8052  18.3032 15.54170176135797
HORS 4 (RS82S)          
1 61754U 24199V   26156.81890293  .00062189  00000+0  80803-3 0  9995
2 61754  97.2935  33.5693 0003540 334.1168  25.9910 15.58602139135877
ARCTICSAT 1 (RS74S)     
1 61762U 24199AD  26156.04331285  .00706680  23827-3  12270-2 0  9999
2 61762  97.2851  39.2907 0006187 198.3612 161.7446 16.02262718136170
SIT-2086                
1 61764U 24199AF  26156.78945212  .00039207  00000+0  64449-3 0  9997
2 61764  97.2946  32.9252 0004787 314.8374  45.2489 15.52273740132668
HYPERVIEW 1G (RS66S)    
1 61772U 24199AP  26156.43076365  .00112991  00000+0  82953-3 0  9994
2 61772  97.2889  35.5812 0002110 312.1945  47.9139 15.72781514132821
ALTAIR (RS65S)          
1 61779U 24199AW  26156.78328493  .00012707  00000+0  35471-3 0  9998
2 61779  97.3039  26.2103 0012329 355.7838   4.3300 15.36786246135369
ASRTU-1 (AO-123)        
1 61781U 24199AY  26156.82654049  .00009964  00000+0  29017-3 0  9995
2 61781  97.3010  25.5999 0013535 357.3753   2.7417 15.35508561132189
SAMSAT-IONOSPHERE (RS7*)
1 61784U 24199BB  26156.81336815  .00058525  00000+0  81895-3 0  9994
2 61784  97.2956  32.4407 0006614 334.9597  25.1337 15.56606917135795
RTU MIREA 1 (RS51S)     
1 61785U 24199BC  26156.79799102  .00075960  00000+0  94027-3 0  9997
2 61785  97.2947  33.2000 0006055 329.6290  30.4616 15.59821108132693
TEVEL2-4                
1 63213U 25052D   26155.66099578  .00021744  00000+0  65898-3 0  9994
2 63213  97.3926  52.0362 0004288 127.7510 232.4122 15.34152369 68195
TEVEL2-5                
1 63214U 25052E   26156.46288933  .00019450  00000+0  59244-3 0  9998
2 63214  97.3910  52.7894 0004115 126.1659 233.9965 15.34015334 68317
TEVEL2-6                
1 63215U 25052F   26155.69214829  .00020192  00000+0  61616-3 0  9997
2 63215  97.3914  52.0022 0004351 129.5253 230.6375 15.33948162 68195
TEVEL2-1                
1 63217U 25052H   26156.43470877  .00016797  00000+0  52119-3 0  9993
2 63217  97.3883  52.3839 0004006 136.2880 223.8680 15.33457579 68290
TEVEL2-3                
1 63218U 25052J   26155.64673364  .00020177  00000+0  62480-3 0  9991
2 63218  97.3888  51.6166 0003978 138.3190 221.8356 15.33483588 68179
TEVEL2-2                
1 63219U 25052K   26156.50033897  .00018252  00000+0  56579-3 0  9992
2 63219  97.3888  52.4514 0003990 137.6177 222.5374 15.33469790 68309
TEVEL2-9                
1 63237U 25052AD  26156.26677513  .00015357  00000+0  50636-3 0  9995
2 63237  97.3943  51.6191 0006650 165.5205 194.6228 15.31514886 68202
TEVEL2-7                
1 63238U 25052AE  26156.43613089  .00014789  00000+0  49200-3 0  9996
2 63238  97.3949  51.7085 0006681 165.6962 194.4470 15.31236048 68227
TEVEL2-8                
1 63239U 25052AF  26155.66005754  .00017961  00000+0  59749-3 0  9999
2 63239  97.3951  50.9120 0006563 168.5625 191.5767 15.31195553 68108
INNOSAT 16 (RS92S7)     
1 64878U 25155C   26156.78463720  .00006586  00000+0  26394-3 0  9999
2 64878  97.4562 123.9504 0009217 217.4336 142.6261 15.25332269 78934
GEOSCAN 6 (RS92S6)      
1 64879U 25155D   26156.73662586  .00011554  00000+0  40095-3 0  9991
2 64879  97.4555 125.2467 0006809 202.6989 157.3951 15.29928431 79019
GEOSCAN 1 (RS92S1)      
1 64880U 25155E   26156.74346227  .00011876  00000+0  40478-3 0  9997
2 64880  97.4553 125.3918 0006749 202.3141 157.7806 15.30506545 79025
239ALFEROV (RS61S)      
1 64881U 25155F   26156.72918823  .00015982  00000+0  50906-3 0  9992
2 64881  97.4554 125.9009 0006381 198.6483 161.4526 15.32622633 79055
GEOSCAN 2 (RS92S2)      
1 64890U 25155Q   26156.73917470  .00012105  00000+0  40907-3 0  9994
2 64890  97.4552 125.5354 0006609 186.5398 173.5757 15.30778937 79031
GEOSCAN 5 (RS92S5)      
1 64891U 25155R   26156.78586718  .00016714  00000+0  52699-3 0  9998
2 64891  97.4546 126.0912 0005050 201.4368 158.6663 15.32944721 79076
GEOSCAN 4 (RS92S4)      
1 64892U 25155S   26156.77117887  .00016045  00000+0  50373-3 0  9999
2 64892  97.4549 126.1216 0005109 202.1842 157.9180 15.33091483 79073
